[{"OBJECT_NAME":"STARLINK-30393","OBJECT_ID":"2023-144C","EPOCH":"2026-03-09T22:00:01.999584","MEAN_MOTION":15.26742109,"ECCENTRICITY":0.00014647,"INCLINATION":42.9998,"RA_OF_ASC_NODE":283.5747,"ARG_OF_PERICENTER":268.9338,"MEAN_ANOMALY":181.8638,"EPHEMERIS_TYPE":0,"CLASSIFICATION_TYPE":"U","NORAD_CAT_ID":57866,"ELEMENT_SET_NO":999,"REV_AT_EPOCH":557,"BSTAR":0.00081323783,"MEAN_MOTION_DOT":0.0002162,"MEAN_MOTION_DDOT":0},{"OBJECT_NAME":"ELECTRON KICK STAGE R\/B","OBJECT_ID":"2022-147B","EPOCH":"2026-03-09T22:28:20.187264","MEAN_MOTION":15.28920172,"ECCENTRICITY":0.00095089,"INCLINATION":97.642,"RA_OF_ASC_NODE":85.1135,"ARG_OF_PERICENTER":110.4683,"MEAN_ANOMALY":249.7578,"EPHEMERIS_TYPE":0,"CLASSIFICATION_TYPE":"U","NORAD_CAT_ID":54228,"ELEMENT_SET_NO":999,"REV_AT_EPOCH":18390,"BSTAR":0.00083201931,"MEAN_MOTION_DOT":0.00023374,"MEAN_MOTION_DDOT":0}]
